     2.11           N: GPS NAV DATA                         RINEX VERSION / TYPE
teqc  2019Feb25                         20221121 12:25:08UTCPGM / RUN BY / DATE
OSX ker:10.11.6|Core i5|gcc 4.3 -m64|OSX ker:10.10+|=+      COMMENT
    4.6566D-09  1.4901D-08 -5.9605D-08 -1.1921D-07          ION ALPHA
    7.9872D+04  8.1920D+04 -6.5536D+04 -4.5875D+05          ION BETA
    1.862645149231D-09 8.881784197001D-15   319488     1540 DELTA-UTC: A0,A1,T,W
                                                            END OF HEADER
 3 09  7 14  0  0  0.0 4.197144880891D-04 5.229594535194D-12 0.000000000000D+00
    7.000000000000D+00-4.703125000000D+01 5.449869866098D-09 1.616111081811D+00
   -2.397224307060D-06 1.206441374961D-02 1.017190515995D-05 5.153645891190D+03
    1.728000000000D+05-3.203749656677D-07-2.434807103969D+00-3.911554813385D-08
    9.264820868292D-01 1.699375000000D+02 9.136130788290D-01-8.493210919183D-09
   -2.092944322389D-10 1.000000000000D+00 1.540000000000D+03 0.000000000000D+00
    2.000000000000D+00 0.000000000000D+00-4.190951585770D-09 7.000000000000D+00
    1.656180000000D+05 4.000000000000D+00
16 09  7 14  0  0  0.0 3.306241706014D-05-3.637978807092D-12 0.000000000000D+00
    2.900000000000D+01-4.440625000000D+01 4.730911347161D-09-2.197635865475D+00
   -2.313405275345D-06 5.344439879991D-03 6.156042218208D-06 5.153577808380D+03
    1.728000000000D+05-1.490116119385D-07 2.938866502992D+00-4.097819328308D-08
    9.691733279479D-01 2.698437500000D+02-3.164623726938D-01-8.139267604595D-09
    2.142946405177D-11 1.000000000000D+00 1.540000000000D+03 0.000000000000D+00
    2.000000000000D+00 0.000000000000D+00-9.778887033463D-09 2.900000000000D+01
    1.656180000000D+05 4.000000000000D+00
19 09  7 14  0  0  0.0 1.915497705340D-05-1.364242052659D-12 0.000000000000D+00
    4.400000000000D+01-2.365625000000D+01 4.669480216880D-09 2.350022738714D+00
   -9.536743164063D-07 5.738213891163D-03 1.083500683308D-05 5.153633827209D+03
    1.728000000000D+05 5.587935447693D-09-2.246339280042D+00 1.545995473862D-07
    9.574295146109D-01 1.685937500000D+02-3.254959854600D-01-7.995333037714D-09
   -1.732215010851D-10 1.000000000000D+00 1.540000000000D+03 0.000000000000D+00
    2.000000000000D+00 0.000000000000D+00-1.443549990654D-08 4.400000000000D+01
    1.656180000000D+05 4.000000000000D+00
 7 09  7 14  0  0  0.0 1.528626307845D-05-6.821210263297D-13 0.000000000000D+00
    5.900000000000D+01 1.406250000000D+01 4.368396246952D-09 2.472085330220D-01
    8.363276720047D-07 2.831688849255D-03 6.722286343575D-06 5.153663049698D+03
    1.728000000000D+05 2.421438694000D-08 1.869432562856D+00-4.284083843231D-08
    9.678091305064D-01 2.534062500000D+02 2.877810900124D+00-8.092479941415D-09
    4.285892810353D-10 1.000000000000D+00 1.540000000000D+03 0.000000000000D+00
    2.000000000000D+00 0.000000000000D+00-1.071020960808D-08 5.900000000000D+01
    1.656180000000D+05 4.000000000000D+00
25 09  7 14  0  0  0.0 5.070576444268D-04 1.739408617141D-11 0.000000000000D+00
    8.600000000000D+01 1.887500000000D+01 4.261963242162D-09-1.583892935590D+00
    1.257285475731D-06 1.128188264556D-02 7.512047886848D-06 5.153649194717D+03
    1.728000000000D+05-1.862645149231D-07 1.774987806361D+00 1.955777406693D-07
    9.700004384232D-01 2.436250000000D+02-1.208579005572D+00-8.030691653399D-09
    4.285892810353D-10 1.000000000000D+00 1.540000000000D+03 0.000000000000D+00
    2.800000000000D+00 0.000000000000D+00-7.450580596924D-09 8.600000000000D+01
    1.656180000000D+05 4.000000000000D+00
21 09  7 14  0  0  0.0 2.911314368248D-06-2.160049916711D-12 0.000000000000D+00
    7.600000000000D+01 6.968750000000D+01 5.298077829065D-09-7.201574123040D-01
    3.531575202942D-06 1.548993715551D-02 7.279217243195D-06 5.153600107193D+03
    1.728000000000D+05 3.017485141754D-07-1.255119122715D+00 2.216547727585D-07
    9.334729290658D-01 2.242812500000D+02-2.580317715104D+00-8.607858551860D-09
    6.785996949726D-12 1.000000000000D+00 1.540000000000D+03 0.000000000000D+00
    2.000000000000D+00 0.000000000000D+00-1.210719347000D-08 7.600000000000D+01
    1.656180000000D+05 4.000000000000D+00
18 09  7 14  0  0  0.0-4.023639485240D-05 3.183231456205D-12 0.000000000000D+00
    2.700000000000D+01-7.062500000000D+00 4.957349350642D-09-2.001565630797D+00
   -3.539025783539D-07 1.068141008727D-02 4.664063453674D-06 5.153606264114D+03
    1.728000000000D+05 9.313225746155D-09-1.968932987219D-01-1.713633537292D-07
    9.419105738761D-01 2.808750000000D+02-2.407143296758D+00-8.280344909602D-09
   -1.871506527187D-10 1.000000000000D+00 1.540000000000D+03 0.000000000000D+00
    2.000000000000D+00 0.000000000000D+00-1.071020960808D-08 2.700000000000D+01
    1.656180000000D+05 4.000000000000D+00
 6 09  7 14  0  0  0.0 1.915004104376D-04 1.102762325900D-11 0.000000000000D+00
    9.400000000000D+01-2.978125000000D+01 5.197716505756D-09-2.268755875132D+00
   -1.417472958565D-06 5.966577446088D-03 1.013092696667D-05 5.153703695297D+03
    1.728000000000D+05 2.607703208923D-08-2.366832719283D+00 7.264316082001D-08
    9.339009540262D-01 1.677187500000D+02-1.315315389948D+00-8.178197797622D-09
   -1.435774091468D-10 1.000000000000D+00 1.540000000000D+03 0.000000000000D+00
    2.000000000000D+00 0.000000000000D+00-4.656612873077D-09 9.400000000000D+01
    1.656180000000D+05 4.000000000000D+00
15 09  7 14  0  0  0.0-3.081508912146D-04-2.614797267597D-12 0.000000000000D+00
    3.200000000000D+01-1.131250000000D+01 4.383039714054D-09 2.625233371439D+00
   -6.705522537231D-07 1.482271472923D-03 8.663162589073D-06 5.153637546539D+03
    1.728000000000D+05 2.421438694000D-08 8.066481720199D-01 1.862645149231D-09
    9.562604119245D-01 2.087187500000D+02-4.842218261027D-01-8.022477025512D-09
   -9.036090675161D-11 1.000000000000D+00 1.540000000000D+03 0.000000000000D+00
    2.000000000000D+00 0.000000000000D+00-9.778887033463D-09 3.200000000000D+01
    1.657320000000D+05 4.000000000000D+00
22 09  7 14  0  0  0.0 1.955330371857D-04-7.958078640513D-13 0.000000000000D+00
    1.000000000000D+01-4.156250000000D+00 5.027709424278D-09-3.026717900870D+00
   -1.918524503708D-07 5.170375807211D-03 4.747882485390D-06 5.153655076981D+03
    1.728000000000D+05-4.097819328308D-08-1.913077282776D-01 2.235174179077D-08
    9.395780534030D-01 2.770312500000D+02-1.897489339122D+00-8.347490563631D-09
   -2.410814705824D-10 1.000000000000D+00 1.540000000000D+03 0.000000000000D+00
    2.000000000000D+00 0.000000000000D+00-1.769512891769D-08 1.000000000000D+01
    1.672020000000D+05 4.000000000000D+00
28 09  7 14  0  0  0.0-2.591218799353D-05-1.136868377216D-13 0.000000000000D+00
    7.700000000000D+01-4.978125000000D+01 4.669837374614D-09-2.787080246862D+00
   -2.698972821236D-06 1.494944968726D-02 5.651265382767D-06 5.153648807526D+03
    1.728000000000D+05 3.259629011154D-07 2.946989039637D+00-1.564621925354D-07
    9.673777803332D-01 2.714687500000D+02-2.021847505104D+00-8.003904823334D-09
    5.178787145843D-11 1.000000000000D+00 1.540000000000D+03 0.000000000000D+00
    2.800000000000D+00 0.000000000000D+00-1.071020960808D-08 7.700000000000D+01
    1.672020000000D+05 4.000000000000D+00
11 09  7 14  0  0  0.0-1.048902049661D-05-1.591615728103D-12 0.000000000000D+00
    3.100000000000D+01 4.678125000000D+01 6.402052385465D-09 6.140365009707D-02
    2.579763531685D-06 9.484454523772D-03 7.908791303635D-06 5.153689517975D+03
    1.728000000000D+05 9.313225746155D-09-1.488862858257D+00 9.499490261078D-08
    8.889113530344D-01 1.835625000000D+02 7.047851437359D-01-9.073592237252D-09
   -3.928735076157D-11 1.000000000000D+00 1.540000000000D+03 0.000000000000D+00
    2.000000000000D+00 0.000000000000D+00-1.164153218269D-08 3.100000000000D+01
    1.687020000000D+05 4.000000000000D+00
26 09  7 14  0  0  0.0 6.468035280704D-05 1.136868377216D-13 0.000000000000D+00
    4.000000000000D+01-1.131250000000D+01 3.524075363313D-09 7.367893864639D-02
   -4.563480615616D-07 2.029748389032D-02 9.853392839432D-06 5.154909824371D+03
    1.728000000000D+05-1.639127731323D-07 8.779326941292D-01 3.464519977570D-07
    9.926072274924D-01 2.101562500000D+02 1.023912897579D+00-7.901043395886D-09
   -3.357282701443D-11 1.000000000000D+00 1.540000000000D+03 0.000000000000D+00
    2.000000000000D+00 0.000000000000D+00-6.519258022308D-09 4.000000000000D+01
    1.719720000000D+05 4.000000000000D+00
27 09  7 14  0  0  0.0 6.539886817336D-05 3.069544618484D-12 0.000000000000D+00
    5.400000000000D+01 2.850000000000D+01 4.121957410357D-09 2.621883050582D+00
    1.253560185432D-06 2.128333249129D-02 7.044523954391D-06 5.153769020081D+03
    1.728000000000D+05 2.551823854446D-07 1.811542882947D+00-8.568167686462D-08
    9.747450021333D-01 2.489687500000D+02-1.572847582249D+00-7.602459530098D-09
    3.428714248282D-10 1.000000000000D+00 1.540000000000D+03 0.000000000000D+00
    2.000000000000D+00 0.000000000000D+00-4.190951585770D-09 5.400000000000D+01
    1.727520000000D+05 4.000000000000D+00
